School ID,School Name,Street Address,City,State,ZIP Code,Phone Number,School State ID,School Level,Lowest Grade,Highest Grade,Latitude,Longitude,School Website,Cluster,Mapped Location
496,A. Z. Kelley Elementary,5834 Pettus Road,Antioch,TN,37013,(615)941-7535,1,Elementary School,Grade P3,Grade 4,36.02181712,-86.65884778,http://schools.mnps.org/az-kelley-elementary-school,Cane Ridge,"(36.02181712, -86.65884778)"
375,Alex Green Elementary,3921 Lloyd Road,Whites Creek,TN,37189,(615)876-5105,5,Elementary School,Grade P4,Grade 4,36.2529607,-86.8322292,http://schools.mnps.org/alex-green-elementary-school,Whites Creek,"(36.2529607, -86.8322292)"
105,Amqui Elementary,319 Anderson Lane,Madison,TN,37115,(615)612-3678,10,Elementary School,Grade P3,Grade 4,36.27376585,-86.70383153,http://schools.mnps.org/amqui-elementary-school,Hunters Lane,"(36.27376585, -86.70383153)"
460,Andrew Jackson Elementary,110 Shute Ln,Old Hickory,TN,37138,(615)847-7317,15,Elementary School,Grade P4,Grade 4,36.23158465,-86.62377469,http://schools.mnps.org/andrew-jackson-elementary-school,McGavock,"(36.23158465, -86.62377469)"
110,Antioch High School,1900 Hobson Pike,Antioch,TN,37013,(615)641-5400,20,High School,Grade 9,Grade 12,36.04667464,-86.59941833,http://schools.mnps.org/antioch-high-school,Antioch,"(36.04667464, -86.59941833)"
111,Antioch Middle,5050 Blue Hole Road,Antioch,TN,37013,(615)333-5642,23,Middle School,Grade 5,Grade 8,36.05537897,-86.67182989,http://schools.mnps.org/antioch-middle-prep,Cane Ridge,"(36.05537897, -86.67182989)"
577,Apollo Middle,631 Richards Rd,Antioch,TN,37013,(615)333-5025,25,Middle School,Grade 5,Grade 8,36.06687798,-86.66406971,http://schools.mnps.org/apollo-middle-prep,Antioch,"(36.06687798, -86.66406971)"
130,Bellevue Middle,655 Colice Jeanne Road,Nashville,TN,37221,(615)662-3000,40,Middle School,Grade 5,Grade 8,36.07074879,-86.93482036,http://schools.mnps.org/bellevue-middle-prep,Hillwood,"(36.07074879, -86.93482036)"
135,Bellshire Elementary,1128 Bell Grimes Lane,Nashville,TN,37207,(615)860-1452,45,Elementary School,Grade P3,Grade 4,36.26968766,-86.76230026,http://schools.mnps.org/bellshire-design-center,Hunters Lane,"(36.26968766, -86.76230026)"
118,Brick Church College Prep,2835 Brick Church Pike,Nashville,TN,37207,(615)806-6317,118,Charter,Grade 5,Grade 8,36.22073858,-86.78175245,http://www.brickchurchcollegeprep.org/,Whites Creek,"(36.22073858, -86.78175245)"
165,Buena Vista Elementary,1531 9th Avenue North,Nashville,TN,37208,(615)291-6762,70,Elementary School,Grade P4,Grade 4,36.17774116,-86.79813805,http://schools.mnps.org/buena-vista-enhanced-option-elementary-school,Pearl-Cohn,"(36.17774116, -86.79813805)"
175,Caldwell Elementary,244 Foster St.,Nashville,TN,37207,(615)291-6361,80,Elementary School,Grade P3,Grade 4,36.17830976,-86.76900113,http://schools.mnps.org/caldwell-enhanced-option-elementary-school,Maplewood,"(36.17830976, -86.76900113)"
419,Cambridge Early Learning Center,2325 Hickory Highlands Dr,Antioch,TN,37013,(615)687-4560,7005,Elementary School,Grade P4,Grade P4,36.06035009,-86.64101743,http://schools.mnps.org/cambridge-early-learning-center,,"(36.06035009, -86.64101743)"
181,Cameron College Preparatory,1034 1st Avenue South,Nashville,TN,37210,(615)806-6320,8010,Charter,Grade 5,Grade 8,36.14859279,-86.76399902,http://www.cameroncollegeprep.org/,Glencliff,"(36.14859279, -86.76399902)"
184,Cane Ridge Elementary,3884 Asheford Trace,Antioch,TN,37013,(615)641-7824,82,Elementary School,Grade K,Grade 4,36.03971967,-86.61815063,http://schools.mnps.org/cane-ridge-elementary-school,Cane Ridge,"(36.03971967, -86.61815063)"
182,Cane Ridge High School,12848 Old Hickory Blvd.,Antioch,TN,37013,(615)687-4000,77,High School,Grade 9,Grade 12,36.03028843,-86.62123021,http://schools.mnps.org/cane-ridge-high-school,Cane Ridge,"(36.03028843, -86.62123021)"
185,Carter-Lawrence Elementary,1118 12th Avenue South,Nashville,TN,37203,(615)291-7333,670,Elementary School,Grade P4,Grade 4,36.14365344,-86.78585349,http://schools.mnps.org/carterlawrence-elementary-school,,"(36.14365344, -86.78585349)"
186,Casa Azafran Early Learning Center,2195 Nolensville Road,Nashville,TN,37211,(615)291-4672,7020,Elementary School,Grade P4,Grade P4,36.12651716,-86.75339875,http://schools.mnps.org/casa-azafrn-early-learning-center,,"(36.12651716, -86.75339875)"
200,Chadwell Elementary,321 Port Drive,Madison,TN,37115,(615)860-1459,105,Elementary School,Grade P3,Grade 4,36.25637022,-86.74167109,http://schools.mnps.org/chadwell-elementary-school,Maplewood,"(36.25637022, -86.74167109)"
205,Charlotte Park Elementary,480 Annex Ave.,Nashville,TN,37209,(615)353-2006,110,Elementary School,Grade P3,Grade 4,36.15124524,-86.88371355,http://schools.mnps.org/charlotte-park-elementary-school,Hillwood,"(36.15124524, -86.88371355)"
215,Cockrill Elementary,4701 Indiana Ave,Nashville,TN,37209,(615)298-8075,120,Elementary School,Grade P3,Grade 4,36.15620646,-86.84514493,http://schools.mnps.org/cockrill-elementary-school,Pearl-Cohn,"(36.15620646, -86.84514493)"
225,Cole Elementary,5060 Colemont Dr.,Antioch,TN,37013,(615)333-5043,130,Elementary School,Grade P4,Grade 4,36.05833526,-86.69862021,http://schools.mnps.org/cole-elementary-school,Cane Ridge,"(36.05833526, -86.69862021)"
448,Cora Howe School,1928 Greenwood Avenue,Nashville,TN,37206,(615)262-6675,443,Special Education,Grade K,Grade 12,36.18893027,-86.73458329,http://schools.mnps.org/cora-howe-school,,"(36.18893027, -86.73458329)"
783,Creswell Middle Prep School of the Arts,3500 John Mallette Drive,Nashville,TN,37218,(615)291-6515,700,Middle School,Grade 5,Grade 8,36.19606322,-86.83753939,http://schools.mnps.org/creswell-middle-prep-school-of-the-arts,,"(36.19606322, -86.83753939)"
235,Crieve Hall Elementary,498 Hogan Road,Nashville,TN,37220,(615)333-5059,145,Elementary School,Grade K,Grade 4,36.06574575,-86.75810305,http://schools.mnps.org/crieve-hall-elementary-school,John Overton,"(36.06574575, -86.75810305)"
238,Croft Middle,482 Elysian Fields Road,Nashville,TN,37211,(615)332-0217,148,Middle School,Grade 5,Grade 8,36.08747494,-86.73414769,http://schools.mnps.org/croft-design-center-middle-prep,John Overton,"(36.08747494, -86.73414769)"
240,Cumberland Elementary,4247 Cato Road,Nashville,TN,37218,(615)291-6370,150,Elementary School,Grade P3,Grade 4,36.2120691,-86.86656862,http://schools.mnps.org/cumberland-elementary-school,Whites Creek,"(36.2120691, -86.86656862)"
560,Dan Mills Elementary,4106 Kennedy Avenue,Nashville,TN,37216,(615)262-6677,160,Elementary School,Grade P4,Grade 4,36.21863826,-86.71708395,http://schools.mnps.org/dan-mills-elementary-school,Stratford,"(36.21863826, -86.71708395)"
252,Dodson Elementary,4401 Chandler Rd.,Hermitage,TN,37076,(615)885-8806,165,Elementary School,Grade P4,Grade 4,36.19090848,-86.60331793,http://schools.mnps.org/dodson-elementary-school,McGavock,"(36.19090848, -86.60331793)"
260,Donelson Middle,110 Stewarts Ferry Pike,Nashville,TN,37214,(615)884-4080,175,Middle School,Grade 5,Grade 8,36.16672257,-86.65633623,http://schools.mnps.org/donelson-middle-prep,McGavock,"(36.16672257, -86.65633623)"
265,Dupont Elementary,1311 Ninth St.,Old Hickory,TN,37138,(615)847-7305,180,Elementary School,Grade P4,Grade 4,36.2613821,-86.65262579,http://schools.mnps.org/dupont-elementary-school,McGavock,"(36.2613821, -86.65262579)"
270,Dupont-Hadley Middle,1901 Old Hickory Blvd.,Old Hickory,TN,37138,(615)847-7300,190,Middle School,Grade 5,Grade 8,36.24977849,-86.64278911,http://schools.mnps.org/dupont-hadley-middle-prep,McGavock,"(36.24977849, -86.64278911)"
275,Dupont-Tyler Middle,431 Tyler Dr.,Hermitage,TN,37076,(615)885-8827,185,Middle School,Grade 5,Grade 8,36.19962251,-86.61259576,http://schools.mnps.org/dupont-tyler-middle-prep,McGavock,"(36.19962251, -86.61259576)"
280,Eakin Elementary,2500 Fairfax Avenue,Nashville,TN,37212,(615)298-8076,195,Elementary School,Grade P3,Grade 4,36.13514319,-86.80760668,http://schools.mnps.org/eakin-elementary-school,Hillsboro,"(36.13514319, -86.80760668)"
286,East End Preparatory School,1460 McGavock Pike,Nashville,TN,37216,(615)630-7470,8009,Charter,Grade K,Grade 5,36.20699504,-86.71827177,http://www.eastendprep.org/,,"(36.20699504, -86.71827177)"
296,East Nashville Middle,2000 Greenwood Ave,Nashville,TN,37206,(615)262-6670,296,Middle School,Grade 5,Grade 8,36.18886165,-86.73324272,http://schools.mnps.org/east-nashville-magnet-middle-prep,,"(36.18886165, -86.73324272)"
290,East Nashville School,110 Gallatin Road,Nashville,TN,37206,(615)262-6947,203,High School,Grade 9,Grade 12,36.18062644,-86.75047137,http://schools.mnps.org/east-nashville-magnet-high-school,,"(36.18062644, -86.75047137)"
305,Explore Community School,217 South 10th Street,Nashville,TN,37206,(615)784-8222,8060,Charter,Grade K,Grade 2,36.17436415,-86.75164889,http://www.explorecommunityschool.com/,,"(36.17436415, -86.75164889)"
308,Fall-Hamilton Elementary,510 Wedgewood Ave,Nashville,TN,37203,(615)291-6380,220,Elementary School,Grade P3,Grade 4,36.13347184,-86.76620628,http://schools.mnps.org/fallhamilton-enhanced-option-school,Glencliff,"(36.13347184, -86.76620628)"
315,Gateway Elementary,1524 Monticello Avenue,Madison,TN,37115,(615)860-1465,235,Elementary School,Grade K,Grade 4,36.29220888,-86.71066018,http://schools.mnps.org/gateway-elementary-school,Hunters Lane,"(36.29220888, -86.71066018)"
320,Glencliff Elementary,120 Antioch Pike,Nashville,TN,37211,(615)333-5105,240,Elementary School,Grade K,Grade 4,36.10162585,-86.72309983,http://schools.mnps.org/glencliff-elementary-school,Glencliff,"(36.10162585, -86.72309983)"
325,Glencliff High School,160 Antioch Pike,Nashville,TN,37211,(615)333-5070,245,High School,Grade 9,Grade 12,36.10140068,-86.72746929,http://schools.mnps.org/glencliff-high-school,Glencliff,"(36.10140068, -86.72746929)"
330,Glendale Elementary,800 Thompson Ave,Nashville,TN,37204,(615)279-7970,250,Elementary School,Grade P3,Grade 4,36.09593592,-86.78390656,http://schools.mnps.org/glendale-elementary-school,,"(36.09593592, -86.78390656)"
335,Glengarry Elementary,200 Finley Dr.,Nashville,TN,37217,(615)360-2900,255,Elementary School,Grade P3,Grade 4,36.11038989,-86.70642502,http://schools.mnps.org/glengarry-elementary-school,Glencliff,"(36.11038989, -86.70642502)"
340,Glenn Elementary,322 Cleveland Street,Nashville,TN,37207,(615)262-6682,260,Elementary School,Grade P3,Grade 4,36.18669242,-86.7663288,http://schools.mnps.org/glenn-enhanced-option-elementary-school,Maplewood,"(36.18669242, -86.7663288)"
345,Glenview Elementary,1020 Patricia Dr.,Nashville,TN,37217,(615)360-2906,265,Elementary School,Grade P3,Grade 4,36.12757047,-86.70636796,http://schools.mnps.org/glenview-elementary-school,Glencliff,"(36.12757047, -86.70636796)"
350,Goodlettsville Elementary,514 Donald Ave.,Goodlettsville,TN,37072,(615)859-8950,270,Elementary School,Grade P4,Grade 4,36.31293934,-86.71048708,http://schools.mnps.org/goodlettsville-elementary-school,Hunters Lane,"(36.31293934, -86.71048708)"
355,Goodlettsville Middle,300 South Main Street,Goodlettsville,TN,37072,(615)859-8956,275,Middle School,Grade 5,Grade 8,36.31815052,-86.71246409,http://schools.mnps.org/goodlettsville-middle-prep,Hunters Lane,"(36.31815052, -86.71246409)"
360,Gower Elementary,650 Old Hickory Blvd.,Nashville,TN,37209,(615)353-2012,280,Elementary School,Grade P3,Grade 4,36.11534205,-86.92228685,http://schools.mnps.org/gower-elementary-school,Hillwood,"(36.11534205, -86.92228685)"
365,Gra-Mar Middle,575 Joyce lane,Nashville,TN,37216,(615)262-6685,285,Middle School,Grade 5,Grade 8,36.2328428,-86.74516052,http://schools.mnps.org/gramar-middle-prep,Maplewood,"(36.2328428, -86.74516052)"
370,Granbery Elementary,5501 Hill Road,Brentwood,TN,37027,(615)333-5112,290,Elementary School,Grade K,Grade 4,36.0467903,-86.753046,http://schools.mnps.org/granbery-elementary-school,John Overton,"(36.0467903, -86.753046)"
434,H.G. Hill Middle School,150 Davidson Road,Nashville,TN,37205,(615)353-2020,295,Middle School,Grade 5,Grade 8,36.11637568,-86.86673001,http://schools.mnps.org/hg-hill-middle-prep,Hillwood,"(36.11637568, -86.86673001)"
395,Harpeth Valley Elementary,7840 Learning Lane,Nashville,TN,37221,(615)662-3015,300,Elementary School,Grade P3,Grade 4,36.04552596,-86.95804996,http://schools.mnps.org/harpeth-valley-elementary-school,Hillwood,"(36.04552596, -86.95804996)"
397,Harris-Hillman Special Education,1706 26th Avenue South,Nashville,TN,37212,(615)298-8085,302,Special Education,Grade P3,Grade 12,36.13759485,-86.80760421,http://schools.mnps.org/harrishillman-school,,"(36.13759485, -86.80760421)"
230,Hattie Cotton Elementary,1033 West Greenwood Avenue,Nashville,TN,37206,(615)262-6981,140,Elementary School,Grade P4,Grade 4,36.19107041,-86.74772151,http://schools.mnps.org/hattie-cotton-stem-magnet-elementary-school,Maplewood,"(36.19107041, -86.74772151)"
400,Haynes Middle,510 West Trinity Lane,Nashville,TN,37207,(615)262-6688,305,Middle School,Grade 5,Grade 8,36.20764018,-86.78911404,http://schools.mnps.org/haynes-middle-healthmedical-science-design-center,,"(36.20764018, -86.78911404)"
405,Haywood Elementary,3790 Turley Drive,Nashville,TN,37211,(615)333-5118,310,Elementary School,Grade P3,Grade 4,36.07416907,-86.70806917,http://schools.mnps.org/haywood-elementary-school,John Overton,"(36.07416907, -86.70806917)"
410,Head Middle,1830 Jo Johnston Ave,Nashville,TN,37203,(615)329-8160,315,Middle School,Grade 5,Grade 8,36.15860499,-86.80440551,http://schools.mnps.org/head-middle-magnet-prep,,"(36.15860499, -86.80440551)"
552,Henry C Maxwell Elementary,5535 Blue Hole Road,Antioch,TN,37013,(615)333-7180,318,Elementary School,Grade K,Grade 4,36.03083402,-86.67395212,http://schools.mnps.org/henry-c-maxwell-elementary-school,Cane Ridge,"(36.03083402, -86.67395212)"
415,Hermitage Elementary,3800 Plantation Dr.,Hermitage,TN,37076,(615)885-8838,320,Elementary School,Grade P4,Grade 4,36.19799021,-86.63537014,http://schools.mnps.org/hermitage-elementary-school,McGavock,"(36.19799021, -86.63537014)"
420,Hickman Elementary,112 Stewarts Ferry Pk,Nashville,TN,37214,(615)884-4020,327,Elementary School,Grade P4,Grade 4,36.16497987,-86.65747884,http://schools.mnps.org/hickman-elementary-school,McGavock,"(36.16497987, -86.65747884)"
435,Hillsboro High,3812 Hillsboro Road,Nashville,TN,37215,(615)298-8400,335,High School,Grade 9,Grade 12,36.10706561,-86.81222916,http://schools.mnps.org/hillsboro-high-school,Hillsboro,"(36.10706561, -86.81222916)"
440,Hillwood High,400 Davidson Road,Nashville,TN,37205,(615)353-2025,340,High School,Grade 9,Grade 12,36.11880669,-86.8739002,http://schools.mnps.org/hillwood-high-school,Hillwood,"(36.11880669, -86.8739002)"
451,Hull-Jackson Elementary,1015 Kellow St,Nashville,TN,37208,(615)291-6601,350,Elementary School,Grade P3,Grade 4,36.19031869,-86.80717823,http://schools.mnps.org/hull-jackson-montessori-school,,"(36.19031869, -86.80717823)"
450,Hume-Fogg High,700 Broadway,Nashville,TN,37203,(615)291-6300,355,High School,Grade 9,Grade 12,36.15952461,-86.78153602,http://schools.mnps.org/humefogg-academic-magnet-high-school,,"(36.15952461, -86.78153602)"
452,Hunters Lane High,1150 Hunters Lane,Nashville,TN,37207,(615)860-1401,358,High School,Grade 9,Grade 12,36.27882755,-86.7538435,http://schools.mnps.org/hunters-lane-high-school,Hunters Lane,"(36.27882755, -86.7538435)"
455,Inglewood Elementary,1700 Riverside Drive,Nashville,TN,37216,(615)262-6697,360,Elementary School,Grade P4,Grade 4,36.19783128,-86.72384064,http://schools.mnps.org/inglewood-elementary-school,Stratford,"(36.19783128, -86.72384064)"
457,Intrepid College Prep Charter,5234 Bell Forge Lane East,Antioch,TN,37013,(615)810-8443,8048,Charter,Grade 5,Grade 9,36.0501591,-86.64572008,http://intrepidcollegeprep.org/,,"(36.0501591, -86.64572008)"
510,Isaac Litton Middle,4601 Hedgewood Drive,Nashville,TN,37216,(615)262-6700,365,Middle School,Grade 5,Grade 8,36.22821545,-86.72215874,http://schools.mnps.org/isaac-litton-middle-prep,Stratford,"(36.22821545, -86.72215874)"
152,Ivanetta H. Davis Learning Center at Bordeaux,1910 South Hamilton Road,Nashville,TN,37218,(615)291-6355,7010,Elementary School,Grade P3,Grade P4,36.19158751,-86.83263571,http://schools.mnps.org/ivanetta-h-davis-early-learning-center,,"(36.19158751, -86.83263571)"
310,J.E. Moss Elementary,4701 Bowfield Drive,Antioch,TN,37013,(615)333-5200,370,Elementary School,Grade P3,Grade 4,36.06735338,-86.66974658,http://schools.mnps.org/je-moss-elementary-school,Antioch,"(36.06735338, -86.66974658)"
120,Jere Baxter Middle,350 Hart Lane,Nashville,TN,37207,(615)262-6710,375,Middle School,Grade 5,Grade 8,36.21902803,-86.75088304,http://schools.mnps.org/jere-baxter-middle-prep,Maplewood,"(36.21902803, -86.75088304)"
465,Joelton Elementary,7141  Whites Creek Pk,Joelton,TN,37080,(615)876-5110,380,Elementary School,Grade P4,Grade 4,36.31567955,-86.86803981,http://schools.mnps.org/joelton-elementary-school,Whites Creek,"(36.31567955, -86.86803981)"
470,Joelton Middle,3500 Old Clarksville Pk.,Joelton,TN,37080,(615)876-5100,385,Middle School,Grade 5,Grade 8,36.31384607,-86.86577624,http://schools.mnps.org/joelton-middle-prep,Whites Creek,"(36.31384607, -86.86577624)"
790,John B. Whitsitt Elementary,110 Whitsett Rd,Nashville,TN,37210,(615)333-5600,390,Elementary School,Grade P3,Grade 4,36.11504485,-86.73568455,http://schools.mnps.org/whitsitt-elementary-school,Glencliff,"(36.11504485, -86.73568455)"
285,John Early Middle,1000 Cass Street,Nashville,TN,37208,(615)291-6369,386,Middle School,Grade 5,Grade 8,36.18715342,-86.80471307,http://schools.mnps.org/john-early-museum-magnet-middle-prep,Pearl-Cohn,"(36.18715342, -86.80471307)"
498,John F. Kennedy Middle,2087 Hobson Pike,Antioch,TN,37013,(615)501-7900,393,Middle School,Grade 5,Grade 8,36.05546679,-86.6006047,http://schools.mnps.org/john-f-kennedy-middle-prep,Antioch,"(36.05546679, -86.6006047)"
615,John Overton High,4820 Franklin Road,Nashville,TN,37220,(615)333-5135,395,High School,Grade 9,Grade 12,36.07979927,-86.76899451,http://schools.mnps.org/john-overton-high-school,John Overton,"(36.07979927, -86.76899451)"
563,John Trotwood Moore Middle,4425 Granny White Pike,Nashville,TN,37204,(615)298-8095,490,Middle School,Grade 5,Grade 8,36.09577221,-86.80199502,http://schools.mnps.org/jt-moore-middle-prep,Hillsboro,"(36.09577221, -86.80199502)"
480,Johnson Alternative Learning Center,1200 2nd Ave S,Nashville,TN,37210,(615)749-3067,740,Non-Traditional - Hybrid,Grade 8,Grade 12,36.14539088,-86.76401446,http://schools.mnps.org/johnson-alternative-learning-center-mnps-middle,,"(36.14539088, -86.76401446)"
485,Jones Elementary,1800 9th Avenue North,Nashville,TN,37208,(615)291-6382,387,Elementary School,Grade K,Grade 4,36.18115373,-86.80139789,http://schools.mnps.org/jones-paideia-elementary-magnet-school,,"(36.18115373, -86.80139789)"
380,Julia Green Elementary,3500 Hobbs Rd,Nashville,TN,37215,(615)298-8082,415,Elementary School,Grade K,Grade 4,36.10272398,-86.83311931,http://schools.mnps.org/julia-green-elementary-school,Hillsboro,"(36.10272398, -86.83311931)"
512,KA @ The Crossings MS,5380 Hickory Hollow Parkway,Antioch,TN,37013,(615)810-8370,8105,Charter,Grade 5,Grade 8,36.04506646,-86.65158341,http://www.knowledgeacademies.org/,,"(36.04506646, -86.65158341)"
502,KIPP Academy Nashville,123 Douglas Ave,Nashville,TN,37207,(615)226-4484x1,8002,Charter,Grade 5,Grade 8,36.19453591,-86.76943925,http://kippnashville.org/,,"(36.19453591, -86.76943925)"
499,KIPP Academy Nashville Elementary,1000 Sevier Street,Nashville,TN,37206,(615)226-4484x5,8095,Charter,Grade K,Grade 3,36.16747626,-86.75191017,http://kippnashville.org/,Stratford,"(36.16747626, -86.75191017)"
503,KIPP Nashville College Prep,3410 Knight Road,Nashville,TN,37207,(615)226-4484x2,8042,Charter,Grade 5,Grade 8,36.23750746,-86.80370654,http://kippnashville.org/,,"(36.23750746, -86.80370654)"
501,KIPP Nashville College Prep Elementary,3410 Knight Rd.,Nashville,TN,37207,(615)226-4484x6,8085,Charter,Grade K,Grade 2,36.23825258,-86.80366466,http://kippnashville.org/,,"(36.23825258, -86.80366466)"
504,KIPP Nashville Collegiate High School,123 Douglas Avenue,Nashville,TN,37207,(615)226-4484x3,8011,Charter,Grade 9,Grade 12,36.19479841,-86.76918578,http://kippnashville.org/,,"(36.19479841, -86.76918578)"
511,Knowledge Academies High School,5320 Hickory Hollow Parkway,Antioch,TN,37013,(615)800-6814,8065,Charter,Grade 9,Grade 11,36.04521202,-86.65187296,http://www.knowledgeacademies.org/,,"(36.04521202, -86.65187296)"
506,Knowledge Academy,5380 Hickory Hollow Parkway,Antioch,TN,37013,(615)810-8370,8012,Charter,Grade 5,Grade 8,36.04540154,-86.65199372,http://www.knowledgeacademies.org/,,"(36.04540154, -86.65199372)"
122,Lakeview Elementary,455 Rural Hill Road,Nashville,TN,37217,(615)360-2912,430,Elementary School,Grade K,Grade 4,36.07881496,-86.63007231,http://schools.mnps.org/lakeview-elementary-design-center,Antioch,"(36.07881496, -86.63007231)"
508,Lead Academy,1704 Heiman Street,Nashville,TN,37208,(615)327-5422,8003,Charter,Grade 9,Grade 12,36.14788548,-86.7639513,http://high.leadacademy.org/,,"(36.14788548, -86.7639513)"
507,LEAD Prep Southeast,531 Metroplex Dr.,Nashville,TN,37211,(615)678-0543,8013,Charter,Grade 5,Grade 9,36.09233578,-86.70367086,http://www.leadprepsoutheast.org/,,"(36.09233578, -86.70367086)"
517,Liberty Collegiate Academy,3515 Gallatin Rd.,Nashville,TN,37216,(615)564-1965,8005,Charter,Grade 5,Grade 8,36.2120627,-86.73292493,http://www.republiccharterschools.org/,,"(36.2120627, -86.73292493)"
520,Lockeland Elementary,105 South 17th Street,Nashville,TN,37206,(615)258-1330,435,Elementary School,Grade K,Grade 4,36.17622508,-86.73952049,http://schools.mnps.org/lockeland-elementary-design-center,,"(36.17622508, -86.73952049)"
545,Madison Middle,300 Old Hickory Blvd West,Madison,TN,37115,(615)687-4018,622,Middle School,Grade 5,Grade 8,36.26389402,-86.71620849,http://schools.mnps.org/madison-middle-prep,Hunters Lane,"(36.26389402, -86.71620849)"
550,Maplewood High,401 Walton Lane,Nashville,TN,37216,(615)262-6770,445,High School,Grade 9,Grade 12,36.23275198,-86.75033937,http://schools.mnps.org/maplewood-high-school,Maplewood,"(36.23275198, -86.75033937)"
100,Margaret Allen Middle,500 Spence Lane,Nashville,TN,37210,(615)291-6385,450,Middle School,Grade 5,Grade 8,36.14606234,-86.72164617,http://schools.mnps.org/margaret-allen-middle-prep,Antioch,"(36.14606234, -86.72164617)"
497,Martin Luther King Jr School,613 17th Avenue North,Nashville,TN,37203,(615)329-8400,456,High School,Grade 7,Grade 12,36.16167564,-86.80047381,http://schools.mnps.org/martin-luther-king-jr-academic-magnet-high-school,,"(36.16167564, -86.80047381)"
682,May Werthan Shayne Elementary School,6217 Nolensville Road,Nashville,TN,37211,(615)332-3020,608,Elementary School,Grade P4,Grade 4,36.02103117,-86.71463119,http://schools.mnps.org/shayne-elementary-school,John Overton,"(36.02103117, -86.71463119)"
530,McGavock Elementary,275 McGavock Pike,Nashville,TN,37214,(615)885-8912,465,Elementary School,Grade K,Grade 4,36.160559,-86.68103494,http://schools.mnps.org/mcgavock-elementary-school,McGavock,"(36.160559, -86.68103494)"
532,McGavock High,3150 McGavock Pike,Nashville,TN,37214,(615)885-8850,470,High School,Grade 9,Grade 12,36.18544319,-86.67784935,http://schools.mnps.org/mcgavock-high-school,McGavock,"(36.18544319, -86.67784935)"
540,McMurray Middle,520 McMurray Drive,Nashville,TN,37211,(615)333-5126,480,Middle School,Grade 5,Grade 8,36.05637961,-86.7236925,http://schools.mnps.org/mcmurray-middle-prep,John Overton,"(36.05637961, -86.7236925)"
555,Meigs Middle,713 Ramsey Street,Nashville,TN,37206,(615)271-3222,330,Middle School,Grade 5,Grade 8,36.17636399,-86.76088019,http://schools.mnps.org/meigs-academic-magnet-school,,"(36.17636399, -86.76088019)"
748,Metro Nashville Virtual School,4805 Park Avenue Suite 300,Nashville,TN,37209,(615)463-0188,3,Non-Traditional,Grade K,Grade 12,36.15012141,-86.84538306,https://www.vlearn.mnps.org/,,"(36.15012141, -86.84538306)"
562,Middle College High,120 White Bridge Road,Nashville,TN,37209,(615)353-3742,437,High School,Grade 10,Grade 12,36.13469914,-86.85711693,http://schools.mnps.org/middle-college-high-school,,"(36.13469914, -86.85711693)"
535,Moses McKissack Middle,"915 38th Avenue, North",Nashville,TN,37209,(615)329-8170,35,Middle School,Grade 5,Grade 8,36.15989894,-86.83194158,http://schools.mnps.org/mckissack-middle-prep,Pearl-Cohn,"(36.15989894, -86.83194158)"
576,Mt. View Elementary,3820 Murfreesboro Road,Antioch,TN,37013,(615)641-9393,493,Elementary School,Grade K,Grade 4,36.04185906,-86.60459768,http://schools.mnps.org/mt-view-elementary-school,Antioch,"(36.04185906, -86.60459768)"
585,Murrell School,"1450 14th Avenue, South",Nashville,TN,37210,(615)298-8070,505,Special Education,Grade K,Grade 7,36.13754885,-86.79002142,http://schools.mnps.org/murrell-school,,"(36.13754885, -86.79002142)"
590,Napier Elementary,60 Fairfield Avenue,Nashville,TN,37210,(615)291-6400,510,Elementary School,Grade P3,Grade 4,36.15002117,-86.75639911,http://schools.mnps.org/napier-enhanced-option-elementary-school,McGavock,"(36.15002117, -86.75639911)"
589,Nashville Academy of Computer Science,3230 Brick Church Pike,Nashville,TN,37207,(615)921-5000,8055,Charter,Grade 5,Grade 8,36.23496427,-86.78246535,http://www.republiccharterschools.org/,,"(36.23496427, -86.78246535)"
142,Nashville Big Picture High School,160 Rural Avenue,Nashville,TN,37209,(615)353-2081,53,Non-Traditional,Grade 9,Grade 12,36.14308831,-86.85571486,http://schools.mnps.org/nashville-big-picture-high-school,,"(36.14308831, -86.85571486)"
592,Nashville Classical,1310 Ordway Place,Nashville,TN,37206,(615)538-5841,8044,Charter,Grade K,Grade 4,36.17997265,-86.74607311,http://www.nashvilleclassical.org/home-1,,"(36.17997265, -86.74607311)"
594,Nashville Prep,1300 - 56th Avenue N,Nashville,TN,37209,(615)921-8440,8008,Charter,Grade 5,Grade 8,36.16230587,-86.85533179,http://www.republiccharterschools.org/,,"(36.16230587, -86.85533179)"
242,Nashville School Of The Arts,1250 Foster Avenue,Nashville,TN,37210,(615)291-6600,512,High School,Grade 9,Grade 12,36.13291332,-86.74050019,http://schools.mnps.org/nashville-school-of-the-arts-high-school,,"(36.13291332, -86.74050019)"
601,Neelys Bend College Prep,1251 Neelys Bend Road,Madison,TN,37115,(615)645-6461,6000,Charter,Grade 5,Grade 8,36.24190792,-86.67423071,http://www.neelysbendcollegeprep.org/,Hunters Lane,"(36.24190792, -86.67423071)"
595,Neelys Bend Elementary,1300 Neely's Bend Rd,Madison,TN,37115,(615)860-1471,515,Elementary School,Grade K,Grade 4,36.23996906,-86.6735175,http://schools.mnps.org/neelys-bend-elementary-school,Hunters Lane,"(36.23996906, -86.6735175)"
605,New Vision Academy,297 Plus Park Blvd,Nashville,TN,37217,(615)360-1115,8004,Charter,Grade 5,Grade 8,36.1259159,-86.72565862,http://www.newvisionacademytn.org/,,"(36.1259159, -86.72565862)"
145,Norman Binkley Elementary,4700 West Longdale Drive,Nashville,TN,37211,(615)333-5037,525,Elementary School,Grade P3,Grade 4,36.07697621,-86.7484948,http://schools.mnps.org/norman-binkley-elementary-school,John Overton,"(36.07697621, -86.7484948)"
610,Old Center Elementary,1245 Dickerson Rd.,Goodlettsville,TN,37072,(615)859-8968,535,Elementary School,Grade P4,Grade 4,36.29120972,-86.73794896,http://schools.mnps.org/old-center-elementary-school,Hunters Lane,"(36.29120972, -86.73794896)"
618,Paragon Mills Elementary,260 Paragon Mills Rd,Nashville,TN,37211,(615)333-5170,540,Elementary School,Grade P3,Grade 4,36.08741941,-86.7070561,http://schools.mnps.org/paragon-mills-elementary-school,Glencliff,"(36.08741941, -86.7070561)"
620,Park Avenue Elementary,3703 Park Avenue,Nashville,TN,37209,(615)298-8412,545,Elementary School,Grade P4,Grade 4,36.1510157,-86.8296779,http://schools.mnps.org/park-avenue-enhanced-option-elementary-school,Pearl-Cohn,"(36.1510157, -86.8296779)"
632,Pearl-Cohn High,904 26th Avenue North,Nashville,TN,37208,(615)329-8150,555,High School,Grade 9,Grade 12,36.1645404,-86.81513616,http://schools.mnps.org/pearl-cohn-entertainment-magnet-high-school,Pearl-Cohn,"(36.1645404, -86.81513616)"
640,Pennington Elementary,2817 Donna Hill Dr,Nashville,TN,37214,(615)885-8918,565,Elementary School,Grade K,Grade 4,36.20336639,-86.68142732,http://schools.mnps.org/pennington-elementary-school,McGavock,"(36.20336639, -86.68142732)"
650,Percy Priest Elementary,1700 Otter Creek Rd.,Nashville,TN,37215,(615)298-8416,570,Elementary School,Grade K,Grade 4,36.06158715,-86.83369522,http://schools.mnps.org/percy-priest-elementary-school,Hillsboro,"(36.06158715, -86.83369522)"
652,Purpose Prep,220 Venture Circle,Nashville,TN,37228,(615)724-0705,8046,Charter,Grade K,Grade 4,36.19428804,-86.79469996,http://www.purposeprep.org/,,"(36.19428804, -86.79469996)"
660,RePublic High School,3307 Brick Church Pike,Nashville,TN,37207,(615)291-6620,8100,Charter,Grade 9,Grade 11,36.24209989,-86.77930926,http://www.republiccharterschools.org/,,"(36.24209989, -86.77930926)"
784,Robert Churchwell Elementary,1625 Dr. D. B. Todd Jr. Blvd.,Nashville,TN,37208,(615)687-4024,618,Elementary School,Grade P4,Grade 4,36.17535384,-86.8094237,http://schools.mnps.org/robert-churchwell-museum-magnet-elementary,Pearl-Cohn,"(36.17535384, -86.8094237)"
500,Robert E. Lillard Elementary,3200 King's Lane,Nashville,TN,37218,(615)876-5126,420,Elementary School,Grade K,Grade 4,36.22057234,-86.82690777,http://schools.mnps.org/robert-e-lillard-elementary-school,Whites Creek,"(36.22057234, -86.82690777)"
665,Robertson Academy Gifted School,835 Robertson Academy Rd.,Nashville,TN,37220,(615)333-5175,90001,GATE Center,Grade P4,Grade P4,36.08180191,-86.77638259,https://www.mnps.org/gifted-and-talented/,,"(36.08180191, -86.77638259)"
667,Rocketship Nashville Northeast Elementary,2526 Dickerson Road,Nashville,TN,37207,(615)650-5560,8050,Charter,Grade K,Grade 4,36.21364927,-86.7654224,http://www.rsed.org/northeastelem/index.cfm,,"(36.21364927, -86.7654224)"
669,Rocketship Partners Community Prep,1026 Cheatham Place,Nashville,TN,37208,(615)715-8104,8145,Charter,Grade K,Grade 2,36.17496175,-86.79924797,http://www.rsed.org/nashville/index.cfm,,"(36.17496175, -86.79924797)"
668,Rocketship United,320 Plus Park Blvd,Nashville,TN,37217,(615)712-7499,8070,Charter,Grade K,Grade 4,36.13047686,-86.72486618,http://www.rsed.org/rua/index.cfm,,"(36.13047686, -86.72486618)"
675,Rose Park Middle,"1025 - 9th Avenue, South",Nashville,TN,37203,(615)291-6405,595,Middle School,Grade 5,Grade 8,36.14240589,-86.78131452,http://schools.mnps.org/rose-park-magnet-math-and-science-middle,,"(36.14240589, -86.78131452)"
670,Rosebank Elementary,1012 Preston Drive,Nashville,TN,37206,(615)262-6720,600,Elementary School,Grade P4,Grade 4,36.18398052,-86.71777697,http://schools.mnps.org/rosebank-stem-school,Stratford,"(36.18398052, -86.71777697)"
681,Ross Early Learning Center,601 McFerrin Avenue,Nashville,TN,37206,(615)262-6721,7015,Elementary School,Grade P4,Grade P4,36.17986013,-86.75454811,http://schools.mnps.org/ross-early-learning-center,,"(36.17986013, -86.75454811)"
522,Ruby Major Elementary,5141 John Hager Rd.,Hermitage,TN,37076,(615)232-2203,607,Elementary School,Grade K,Grade 4,36.15616691,-86.57865771,http://schools.mnps.org/ruby-major-elementary-school,McGavock,"(36.15616691, -86.57865771)"
685,Shwab Elementary,1500 Dickerson Road,Nashville,TN,37207,(615)262-6725,610,Elementary School,Grade P3,Grade 4,36.19990663,-86.77079229,http://schools.mnps.org/shwab-elementary-school,Maplewood,"(36.19990663, -86.77079229)"
686,Smith Springs Elementary School,3132 Smith Springs Road,Antioch,TN,37013,(615)645-6465,750,Elementary School,Grade P4,Grade 4,36.08236383,-86.59548478,http://schools.mnps.org/smith-springs-elementary-school,Antioch,"(36.08236383, -86.59548478)"
687,Smithson Craighead Academy,730 NeelyÂ’s Bend Road,Nashville,TN,37115,(615)228-9886,8001,Charter,Grade K,Grade 4,36.25102507,-86.69661996,http://www.projectreflect.org/smithson-craighead-academy/,,"(36.25102507, -86.69661996)"
690,Stanford Elementary,2417 Maplecrest Drive,Nashville,TN,37214,(615)885-8822,615,Elementary School,Grade P3,Grade 4,36.17607628,-86.68231751,http://schools.mnps.org/stanford-montessori-elementary-school,,"(36.17607628, -86.68231751)"
695,STEM Prep Academy,1162 Foster Ave.,Nashville,TN,37210,(615)921-2200,8006,Charter,Grade 5,Grade 8,36.13514463,-86.73860616,http://stemprepacademy.org/,,"(36.13514463, -86.73860616)"
696,STEM Prep High School,1162 Foster Avenue,Nashville,TN,37210,(615)921-2200,8075,Charter,Grade 9,Grade 11,36.13541685,-86.73862237,http://stemprepacademy.org/,,"(36.13541685, -86.73862237)"
705,Stratford STEM Magnet School,1800 Stratford Ave,Nashville,TN,37216,(615)242-6730,620,High School,Grade 5,Grade 12,36.19758986,-86.71806713,http://schools.mnps.org/stratford-stem-magnet-high-school,Stratford,"(36.19758986, -86.71806713)"
710,Stratton Elementary,310 Old Hickory Blvd West,Madison,TN,37115,(615)860-1486,625,Elementary School,Grade P4,Grade 4,36.26560267,-86.71768233,http://schools.mnps.org/stratton-elementary-school,Hunters Lane,"(36.26560267, -86.71768233)"
712,Strive Collegiate Academy,3055 Lebanon Road 3rd Floor,Nashville,TN,37214,(773)981-5646,8090,Charter,Grade 5,Grade 7,36.17883596,-86.64322138,http://strivecollegiate.org/,,"(36.17883596, -86.64322138)"
715,Sylvan Park Elementary,4801 Utah Avenue,Nashville,TN,37209,(615)298-8423,630,Elementary School,Grade P3,Grade 4,36.14422371,-86.84459504,http://schools.mnps.org/sylvan-park-paideia-design-center,Hillsboro,"(36.14422371, -86.84459504)"
422,The Academy at Hickory Hollow,5248 Hickory Hollow Pkwy,Antioch,TN,37013,(615)687-4028,720,Non-Traditional,Grade 11,Grade 12,36.0503998,-86.65481973,http://schools.mnps.org/the-academy-at-hickory-hollow,,"(36.0503998, -86.65481973)"
211,The Academy at Old Cockrill,610  49th Avenue North,Nashville,TN,37209,(615)298-2294,614,Non-Traditional,Grade 11,Grade 12,36.15472188,-86.84555357,http://schools.mnps.org/the-academy-at-old-cockrill,,"(36.15472188, -86.84555357)"
613,The Academy at Opry Mills,"437 Opry Mills Way, The Academy at Opry Mills ",Nashville,TN,37214,(615)810-8306,612,Non-Traditional,Grade 11,Grade 12,36.20270057,-86.69207924,http://schools.mnps.org/the-academy-at-opry-mills,,"(36.20270057, -86.69207924)"
718,The Cohn Learning Center,4805 Park Avenue,Nashville,TN,37209,(615)298-6617,745,Non-Traditional - Hybrid,Grade 9,Grade 12,36.15070892,-86.84519908,http://schools.mnps.org/the-cohn-school,,"(36.15070892, -86.84519908)"
575,Thomas A. Edison Elementary,6130 Mt. View Road,Antioch,TN,37013,(615)501-8800,208,Elementary School,Grade P4,Grade 4,36.06288453,-86.60463837,http://schools.mnps.org/thomas-a-edison-elementary-school,Antioch,"(36.06288453, -86.60463837)"
551,Thurgood Marshall Middle,5832 Pettus Rd.,Antioch,TN,37013,(615)941-7515,633,Middle School,Grade 5,Grade 8,36.0223006,-86.66127077,http://schools.mnps.org/thurgood-marshall-middle-prep,Cane Ridge,"(36.0223006, -86.66127077)"
495,Tom Joy Elementary,2201 Jones Avenue,Nashville,TN,37207,(615)262-6724,635,Elementary School,Grade P4,Grade 4,36.20864749,-86.75662302,http://schools.mnps.org/tom-joy-elementary-school,Maplewood,"(36.20864749, -86.75662302)"
117,Transitions at Bass,5200 Delaware Avenue,Nashville,TN,37209,(615)298-3278,725,Alternative Learning Center,--,--,36.15497807,-86.85204593,http://schools.mnps.org/wa-bass-learning-center,,"(36.15497807, -86.85204593)"
717,Tulip Grove Elementary,441 Tyler Dr.,Hermitage,TN,37076,(615)885-8944,637,Elementary School,Grade P3,Grade 4,36.19849607,-86.61088893,http://schools.mnps.org/tulip-grove-elementary-school,McGavock,"(36.19849607, -86.61088893)"
725,Tusculum Elementary,440 McMurray Drive,Nashville,TN,37211,(615)333-5179,645,Elementary School,Grade P4,Grade 4,36.06224212,-86.71899466,http://schools.mnps.org/tusculum-elementary-school,John Overton,"(36.06224212, -86.71899466)"
730,Two Rivers Middle,2991 McGavock Pk,Nashville,TN,37214,(615)885-8931,650,Middle School,Grade 5,Grade 8,36.19446724,-86.67397377,http://schools.mnps.org/two-rivers-middle-prep,McGavock,"(36.19446724, -86.67397377)"
735,Una Elementary,2018 Murfreesboro Road,Nashville,TN,37217,(615)360-2921,655,Elementary School,Grade P4,Grade 4,36.09503036,-86.65288038,http://schools.mnps.org/una-elementary-school,Antioch,"(36.09503036, -86.65288038)"
743,Valor Flagship Academy,4527 Nolensville Road,Nashville,TN,37211,(615)823-7982,8045,Charter,Grade 5,Grade 8,36.07080058,-86.72549463,http://valorcollegiate.org/,,"(36.07080058, -86.72549463)"
744,Valor Voyager Academy,4527 Nolensville Road,Nashville,TN,37211,(615)823-7982,8080,Charter,Grade 5,Grade 8,36.07065063,-86.7250512,http://valorcollegiate.org/,,"(36.07065063, -86.7250512)"
114,W. A. Bass Adult Program,5200 Delaware Avenue,Nashville,TN,37209,(615)298-3278,125,Adult,--,--,36.15407313,-86.85187659,http://schools.mnps.org/wa-bass-learning-center,,"(36.15407313, -86.85187659)"
116,W.A. Bass Alternative Learning Center,5200 Delaware Avenue,Nashville,TN,37209,(615)298-3278,126,Alternative Learning Center,Grade 9,Grade 12,36.15458411,-86.85100166,http://schools.mnps.org/wa-bass-learning-center,,"(36.15458411, -86.85100166)"
755,Warner Elementary,626 Russell Street,Nashville,TN,37206,(615)291-6395,675,Elementary School,Grade P3,Grade 4,36.17207534,-86.760097,http://schools.mnps.org/warner-enhanced-option-elementary-school,Stratford,"(36.17207534, -86.760097)"
765,Waverly-Belmont Elementary School,2301 - 10th Avenue South,Nashville,TN,37204,(615)800-7690,755,Elementary School,Grade K,Grade 4,36.12646187,-86.78662956,http://schools.mnps.org/waverly-belmont-elementary-school,Hillsboro,"(36.12646187, -86.78662956)"
770,West End Middle,3529 West End Avenue,Nashville,TN,37205,(615)298-8425,690,Middle School,Grade 5,Grade 8,36.13197471,-86.82432265,http://schools.mnps.org/west-end-middle-prep,Hillsboro,"(36.13197471, -86.82432265)"
775,Westmeade Elementary,6641 Clearbrook Drive,Nashville,TN,37205,(615)353-2066,695,Elementary School,Grade K,Grade 4,36.09199678,-86.89413665,http://schools.mnps.org/westmeade-elementary-school,Hillwood,"(36.09199678, -86.89413665)"
787,Whites Creek High School,7277 Old Hickory Blvd.,Whites Creek,TN,37189,(615)876-5132,704,High School,Grade 9,Grade 12,36.27664532,-86.81883299,http://schools.mnps.org/whites-creek-high-school,Whites Creek,"(36.27664532, -86.81883299)"
612,William Henry Oliver Middle,6211 Nolensville Rd.,Nashville,TN,37211,(615)332-3011,538,Middle School,Grade 5,Grade 8,36.02017398,-86.7122071,http://schools.mnps.org/oliver-middle-prep,John Overton,"(36.02017398, -86.7122071)"
805,Wright Middle,180 McCall Street,Nashville,TN,37211,(615)333-5189,715,Middle School,Grade 5,Grade 8,36.10010888,-86.73413342,http://schools.mnps.org/wright-middle-prep,Glencliff,"(36.10010888, -86.73413342)"
